25883,GLOBALSTAR M024,1999,129.71,-1.0,-,52.0,Inactive,0,MEO,USA,Globalstar,Unknown,Unknown,Delta,1 25883U 99043A   23308.65042032  .00000006  00000+0  25262-2 0  9993,2 25883  52.0023 273.0606 0000874 199.3430 331.4298 11.10157365 49274,11.10157365,8.74e-05,MEO
25884,GLOBALSTAR M027,1999,130.39,-1.0,-,52.02,Inactive,0,MEO,USA,Globalstar,Unknown,Unknown,Delta,1 25884U 99043B   23308.90107577 -.00000026  00000+0  14137-2 0  9990,2 25884  52.0236 333.7608 0021424 117.9886 242.3078 11.04366139 76025,11.04366139,0.0021424,MEO
25885,GLOBALSTAR M054,1999,126.4,-1.0,-,52.01,Inactive,0,LEO,USA,Globalstar,Unknown,Unknown,Delta,1 25885U 99043C   23308.95490796 -.00000117  00000+0 -11727-2 0  9998,2 25885  52.0126 199.9841 0003661 230.2700 142.9438 11.39202508 51780,11.39202508,0.0003661,LEO
25886,GLOBALSTAR M053,1999,127.7,-1.0,-,52.0,Inactive,0,LEO,USA,Globalstar,Unknown,Unknown,Delta,1 25886U 99043D   23309.18588668 -.00000064  00000+0  12318-3 0  9999,2 25886  51.9952 113.7936 0004022 146.6129  25.6290 11.27652094 53020,11.27652094,0.0004022,LEO
25907,GLOBALSTAR M058,1999,120.69,-1.0,-,51.99,Inactive,0,LEO,Kazakhstan,Globalstar,Unknown,Unknown,Soyuz,1 25907U 99049A   23308.55228400 -.00000045  00000+0  53304-3 0  9993,2 25907  51.9939 246.2813 0001822 201.9648 158.1109 11.93168285 82245,11.93168285,0.0001822,LEO
25908,GLOBALSTAR M050,1999,119.26,-1.0,-,52.0,Inactive,0,LEO,Kazakhstan,Globalstar,Unknown,Unknown,Soyuz,1 25908U 99049B   23308.96874376 -.00000076  00000+0  13447-3 0  9996,2 25908  52.0000 296.9401 0008901 298.2032  77.9412 12.07424278 76895,12.07424278,0.0008901,LEO
25909,GLOBALSTAR M033,1999,118.01,-1.0,-,51.99,Inactive,0,LEO,Kazakhstan,Globalstar,Unknown,Unknown,Soyuz,1 25909U 99049C   23308.94008843 -.00000140  00000+0 -46100-3 0  9998,2 25909  51.9908 209.6191 0011815 136.5599 223.6181 12.20259284463686,12.20259284,0.0011815,LEO
25910,GLOBALSTAR M055,1999,117.13,-1.0,-,52.0,Inactive,0,LEO,Kazakhstan,Globalstar,Unknown,Unknown,Soyuz,1 25910U 99049D   23309.08742209 -.00000086  00000+0  73702-4 0  9994,2 25910  52.0019 248.6670 0007294 351.5486   8.5242 12.29389819 95921,12.29389819,0.0007294,LEO
